NORAD_CAT_ID,OBJECT_NAME,OBJECT_TYPE,EPOCH,MEAN_MOTION,ECCENTRICITY,INCLINATION,RA_OF_ASC_NODE,ARG_OF_PERICENTER,MEAN_ANOMALY,BSTAR,MEAN_MOTION_DOT,MEAN_MOTION_DDOT,TLE_LINE0,TLE_LINE1,TLE_LINE2,SEMIMAJOR_AXIS,PERIOD,APOGEE,PERIGEE,DECAYED
51116.0,STARLINK-3243,PAYLOAD,2024-03-22 18:37:55,15.08845055,0.0001307,53.2168,267.4422,72.1679,287.9456,0.00010092,1.319e-05,0.0,0 STARLINK-3243,1 51116U 22005N   24082.77633682  .00001319  00000-0  10092-3 0  9990,2 51116  53.2168 267.4422 0001307  72.1679 287.9456 15.08845055120646,6917.865,95.437,540.634,538.826,0.0
51116.0,STARLINK-3243,PAYLOAD,2024-03-23 12:07:10,15.08835053,0.0001418,53.2173,264.1703,98.0421,262.0732,3.2205e-05,2.25e-06,0.0,0 STARLINK-3243,1 51116U 22005N   24083.50498583  .00000225  00000-0  32205-4 0  9997,2 51116  53.2173 264.1703 0001418  98.0421 262.0732 15.08835053121866,6917.896,95.438,540.741,538.78,0.0
51116.0,STARLINK-3243,PAYLOAD,2024-03-23 18:28:43,15.08836616,0.0001516,53.2169,262.9832,97.7522,262.3642,-6.394e-05,-1.305e-05,0.0,0 STARLINK-3243,1 51116U 22005N   24083.76994767 -.00001305  00000-0 -63940-4 0  9992,2 51116  53.2169 262.9832 0001516  97.7522 262.3642 15.08836616120797,6917.891,95.438,540.804,538.707,0.0
51116.0,STARLINK-3243,PAYLOAD,2024-03-24 11:57:57,15.08864901,0.0001489,53.2159,259.7087,105.8399,254.2757,-0.00029786,-5.029e-05,0.0,0 STARLINK-3243,1 51116U 22005N   24084.49858079 -.00005029  00000-0 -29786-3 0  9994,2 51116  53.2159 259.7087 0001489 105.8399 254.2757 15.08864901122016,6917.804,95.436,540.699,538.639,0.0
51116.0,STARLINK-3243,PAYLOAD,2024-03-24 18:19:29,15.08850188,0.0001333,53.216,258.5199,83.8802,276.2342,5.1812e-05,5.37e-06,0.0,0 STARLINK-3243,1 51116U 22005N   24084.76353680  .00000537  00000-0  51812-4 0  9995,2 51116  53.2160 258.5199 0001333  83.8802 276.2342 15.08850188120947,6917.849,95.437,540.636,538.792,0.0
51116.0,STARLINK-3243,PAYLOAD,2024-03-25 11:48:44,15.0883731,0.0001368,53.2176,255.2532,89.0304,271.0845,0.00012402,1.686e-05,0.0,0 STARLINK-3243,1 51116U 22005N   24085.49218339  .00001686  00000-0  12402-3 0  9994,2 51116  53.2176 255.2532 0001368  89.0304 271.0845 15.08837310122161,6917.889,95.438,540.7,538.807,0.0
51116.0,STARLINK-3243,PAYLOAD,2024-03-25 18:10:17,15.08839502,0.0001357,53.2175,254.0623,86.4466,273.6681,0.00011851,1.599e-05,0.0,0 STARLINK-3243,1 51116U 22005N   24085.75714266  .00001599  00000-0  11851-3 0  9993,2 51116  53.2175 254.0623 0001357  86.4466 273.6681 15.08839502121098,6917.882,95.438,540.686,538.808,0.0
51116.0,STARLINK-3243,PAYLOAD,2024-03-26 11:39:33,15.08829704,0.0001451,53.2173,250.7905,84.939,275.1768,-9.811e-05,-1.849e-05,0.0,0 STARLINK-3243,1 51116U 22005N   24086.48580006 -.00001849  00000-0 -98110-4 0  9991,2 51116  53.2173 250.7905 0001451  84.9390 275.1768 15.08829704122318,6917.912,95.438,540.781,538.773,0.0
51116.0,STARLINK-3243,PAYLOAD,2024-03-26 14:50:19,15.08825795,0.0001424,53.2172,250.1957,88.9469,271.1686,-0.00011191,-2.068e-05,0.0,0 STARLINK-3243,1 51116U 22005N   24086.61828368 -.00002068  00000-0 -11191-3 0  9999,2 51116  53.2172 250.1957 0001424  88.9469 271.1686 15.08825795121229,6917.924,95.438,540.774,538.804,0.0
51116.0,STARLINK-3243,PAYLOAD,2024-03-26 18:01:05,15.08829021,0.0001326,53.217,249.6007,96.4406,263.6737,-9.9166e-05,-1.865e-05,0.0,0 STARLINK-3243,1 51116U 22005N   24086.75076153 -.00001865  00000-0 -99166-4 0  9994,2 51116  53.2170 249.6007 0001326  96.4406 263.6737 15.08829021121243,6917.914,95.438,540.696,538.862,0.0
51116.0,STARLINK-3243,PAYLOAD,2024-03-27 09:54:57,15.08833062,0.0001248,53.2168,246.6257,92.7266,267.3869,-1.3002e-05,-4.95e-06,0.0,0 STARLINK-3243,1 51116U 22005N   24087.41316023 -.00000495  00000-0 -13002-4 0  9994,2 51116  53.2168 246.6257 0001248  92.7266 267.3869 15.08833062122451,6917.902,95.438,540.63,538.903,0.0
51116.0,STARLINK-3243,PAYLOAD,2024-03-27 14:41:06,15.08836621,0.0001325,53.2172,245.7341,99.1074,261.0068,2.946e-05,1.81e-06,0.0,0 STARLINK-3243,1 51116U 22005N   24087.61187656  .00000181  00000-0  29460-4 0  9999,2 51116  53.2172 245.7341 0001325  99.1074 261.0068 15.08836621121370,6917.891,95.438,540.672,538.839,0.0
51116.0,STARLINK-3243,PAYLOAD,2024-03-27 17:51:52,15.08840338,0.0001296,53.2175,245.1394,96.9748,263.1392,7.3239e-05,8.78e-06,0.0,0 STARLINK-3243,1 51116U 22005N   24087.74435343  .00000878  00000-0  73239-4 0  9998,2 51116  53.2175 245.1394 0001296  96.9748 263.1392 15.08840338122504,6917.879,95.438,540.641,538.848,0.0
51116.0,STARLINK-3243,PAYLOAD,2024-03-28 03:24:10,15.0884344,0.0001299,53.2173,243.3547,85.4501,274.664,8.5166e-05,1.068e-05,0.0,0 STARLINK-3243,1 51116U 22005N   24088.14179169  .00001068  00000-0  85166-4 0  9998,2 51116  53.2173 243.3547 0001299  85.4501 274.6640 15.08843440121458,6917.87,95.437,540.634,538.836,0.0
51116.0,STARLINK-3243,PAYLOAD,2024-03-28 19:18:01,15.08845173,0.0001126,53.2164,240.3794,90.3086,269.8035,0.00020899,3.04e-05,0.0,0 STARLINK-3243,1 51116U 22005N   24088.80418716  .00003040  00000-0  20899-3 0  9998,2 51116  53.2164 240.3794 0001126  90.3086 269.8035 15.08845173122664,6917.865,95.437,540.509,538.951,0.0
51116.0,STARLINK-3243,PAYLOAD,2024-03-29 09:36:30,15.08840905,0.0001488,53.2175,237.7057,93.7195,266.3967,4.056e-05,3.58e-06,0.0,0 STARLINK-3243,1 51116U 22005N   24089.40035598  .00000358  00000-0  40560-4 0  9995,2 51116  53.2175 237.7057 0001488  93.7195 266.3967 15.08840905122751,6917.878,95.437,540.772,538.713,0.0
51116.0,STARLINK-3243,PAYLOAD,2024-03-29 15:58:02,15.0884488,0.0001704,53.2177,236.5164,98.385,261.7335,6.4384e-05,7.37e-06,0.0,0 STARLINK-3243,1 51116U 22005N   24089.66531233  .00000737  00000-0  64384-4 0  9991,2 51116  53.2177 236.5164 0001704  98.3850 261.7335 15.08844880121684,6917.865,95.437,540.909,538.552,0.0
51116.0,STARLINK-3243,PAYLOAD,2024-03-30 14:13:27,15.08839971,0.0002026,53.2132,232.3508,87.1469,272.9754,-8.6692e-05,-1.668e-05,0.0,0 STARLINK-3243,1 51116U 22005N   24090.59267961 -.00001668  00000-0 -86692-4 0  9991,2 51116  53.2132 232.3508 0002026  87.1469 272.9754 15.08839971121821,6917.88,95.438,541.147,538.344,0.0
51116.0,STARLINK-3243,PAYLOAD,2024-03-30 15:48:50,15.08839762,0.0001746,53.2139,232.0533,86.9251,273.1941,-8.0373e-05,-1.567e-05,0.0,0 STARLINK-3243,1 51116U 22005N   24090.65891842 -.00001567  00000-0 -80373-4 0  9997,2 51116  53.2139 232.0533 0001746  86.9251 273.1941 15.08839762122940,6917.881,95.438,540.954,538.538,0.0
51116.0,STARLINK-3243,PAYLOAD,2024-03-31 14:04:15,15.08746866,0.0002135,53.2156,227.8921,84.0108,276.1127,0.0013677,0.00021491,0.0,0 STARLINK-3243,1 51116U 22005N   24091.58628911  .00021491  00000-0  13677-2 0  9992,2 51116  53.2156 227.8921 0002135  84.0108 276.1127 15.08746866121978,6918.165,95.443,541.507,538.553,0.0
51116.0,STARLINK-3243,PAYLOAD,2024-03-31 15:39:36,15.08866429,0.0001427,53.2152,227.5939,83.953,276.1625,-0.00017195,-3.026e-05,0.0,0 STARLINK-3243,1 51116U 22005N   24091.65250372 -.00003026  00000-0 -17195-3 0  9998,2 51116  53.2152 227.5939 0001427  83.9530 276.1625 15.08866429123096,6917.8,95.436,540.652,538.677,0.0
51116.0,STARLINK-3243,PAYLOAD,2024-04-01 12:19:38,15.08830098,0.0001322,53.2168,223.7291,80.2365,279.8776,5.374e-05,5.67e-06,0.0,0 STARLINK-3243,1 51116U 22005N   24092.51364237  .00000567  00000-0  53740-4 0  9992,2 51116  53.2168 223.7291 0001322  80.2365 279.8776 15.08830098123227,6917.911,95.438,540.69,538.861,0.0
51116.0,STARLINK-3243,PAYLOAD,2024-04-01 15:30:24,15.08828855,0.000114,53.218,223.1306,88.5937,271.5186,0.00014101,1.956e-05,0.0,0 STARLINK-3243,1 51116U 22005N   24092.64612102  .00001956  00000-0  14101-3 0  9993,2 51116  53.2180 223.1306 0001140  88.5937 271.5186 15.08828855122137,6917.914,95.438,540.568,538.991,0.0
51116.0,STARLINK-3243,PAYLOAD,2024-04-01 18:41:10,15.08838283,0.0001227,53.2177,222.5356,78.9828,281.1302,1.4316e-05,-6e-07,0.0,0 STARLINK-3243,1 51116U 22005N   24092.77859910 -.00000060  00000-0  14316-4 0  9992,2 51116  53.2177 222.5356 0001227  78.9828 281.1302 15.08838283123267,6917.886,95.438,540.599,538.902,0.0
51116.0,STARLINK-3243,PAYLOAD,2024-04-02 15:21:11,15.08845322,0.0001346,53.2175,218.6758,91.277,268.8376,4.3835e-05,4.1e-06,0.0,0 STARLINK-3243,1 51116U 22005N   24093.63971507  .00000410  00000-0  43835-4 0  9991,2 51116  53.2175 218.6758 0001346  91.2770 268.8376 15.08845322122289,6917.864,95.437,540.66,538.798,0.0
51116.0,STARLINK-3243,PAYLOAD,2024-04-03 00:53:29,15.08848924,0.0001318,53.218,216.8921,89.6321,270.4822,-8.9806e-06,-4.31e-06,0.0,0 STARLINK-3243,1 51116U 22005N   24094.03715205 -.00000431  00000-0 -89806-5 0  9991,2 51116  53.2180 216.8921 0001318  89.6321 270.4822 15.08848924123455,6917.853,95.437,540.63,538.806,0.0
51116.0,STARLINK-3243,PAYLOAD,2024-04-03 12:01:13,15.08830827,0.0001583,53.2194,214.814,104.6131,255.5037,4.8044e-05,4.77e-06,0.0,0 STARLINK-3243,1 51116U 22005N   24094.50084494  .00000477  00000-0  48044-4 0  9998,2 51116  53.2194 214.8140 0001583 104.6131 255.5037 15.08830827122412,6917.908,95.438,540.869,538.678,0.0
51116.0,STARLINK-3243,PAYLOAD,2024-04-03 18:22:45,15.08834689,0.0001479,53.2183,213.6179,86.77,273.3462,2.8754e-05,1.7e-06,0.0,0 STARLINK-3243,1 51116U 22005N   24094.76580385  .00000170  00000-0  28754-4 0  9992,2 51116  53.2183 213.6179 0001479  86.7700 273.3462 15.08834689123562,6917.897,95.438,540.785,538.738,0.0
51116.0,STARLINK-3243,PAYLOAD,2024-04-04 13:27:22,15.08842495,0.0001452,53.2179,210.05,87.8349,272.281,-2.8796e-05,-7.46e-06,0.0,0 STARLINK-3243,1 51116U 22005N   24095.56068253 -.00000746  00000-0 -28796-4 0  9993,2 51116  53.2179 210.0500 0001452  87.8349 272.2810 15.08842495122577,6917.873,95.437,540.742,538.733,0.0
51116.0,STARLINK-3243,PAYLOAD,2024-04-04 15:02:45,15.08843992,0.0001444,53.218,209.7527,86.6381,273.4776,-1.5097e-05,-5.28e-06,0.0,0 STARLINK-3243,1 51116U 22005N   24095.62692110 -.00000528  00000-0 -15097-4 0  9993,2 51116  53.2180 209.7527 0001444  86.6381 273.4776 15.08843992123698,6917.868,95.437,540.732,538.734,0.0
